STARLINK-31878          
1 60031U 24111R   26068.31548242 -.00001171  00000+0 -27419-4 0  9998
2 60031  53.1621  25.5912 0001511  87.9498 272.1676 15.30188515 99452
YAM-7                   
1 60504U 24149AN  26068.71799904  .00009009  00000+0  30984-3 0  9997
2 60504  97.3828 149.4631 0001973 296.5121  63.5918 15.30304554 86835
